CCSDS_OMM_VERS = 2.0
CREATION_DATE  = 
ORIGINATOR     = 

OBJECT_NAME    = STARLINK-35658
OBJECT_ID      = 2025-237N
CENTER_NAME    = EARTH
REF_FRAME      = TEME
TIME_SYSTEM    = UTC
MEAN_ELEMENT_THEORY = SGP/SGP4

EPOCH          = 2025-11-02T12:00:02.000160
MEAN_MOTION    = 15.81266638
ECCENTRICITY   = .0000863
INCLINATION    = 53.1500
RA_OF_ASC_NODE = 279.5581
ARG_OF_PERICENTER = 91.2539
MEAN_ANOMALY   = 95.1644

EPHEMERIS_TYPE = 0
CLASSIFICATION_TYPE = U
NORAD_CAT_ID   = 66126
ELEMENT_SET_NO = 999
REV_AT_EPOCH   = 301
BSTAR          = -.89957E-2
MEAN_MOTION_DOT = -.1583349E-1
MEAN_MOTION_DDOT = 0

CCSDS_OMM_VERS = 2.0
CREATION_DATE  = 
ORIGINATOR     = 

OBJECT_NAME    = STARLINK-35629
OBJECT_ID      = 2025-237P
CENTER_NAME    = EARTH
REF_FRAME      = TEME
TIME_SYSTEM    = UTC
MEAN_ELEMENT_THEORY = SGP/SGP4

EPOCH          = 2025-11-02T12:00:02.000160
MEAN_MOTION    = 15.81258938
ECCENTRICITY   = .0001063
INCLINATION    = 53.1505
RA_OF_ASC_NODE = 279.5542
ARG_OF_PERICENTER = 92.6525
MEAN_ANOMALY   = 95.9232

EPHEMERIS_TYPE = 0
CLASSIFICATION_TYPE = U
NORAD_CAT_ID   = 66127
ELEMENT_SET_NO = 999
REV_AT_EPOCH   = 301
BSTAR          = -.90756E-2
MEAN_MOTION_DOT = -.1595265E-1
MEAN_MOTION_DDOT = 0

CCSDS_OMM_VERS = 2.0
CREATION_DATE  = 
ORIGINATOR     = 

OBJECT_NAME    = STARLINK-35612
OBJECT_ID      = 2025-237Q
CENTER_NAME    = EARTH
REF_FRAME      = TEME
TIME_SYSTEM    = UTC
MEAN_ELEMENT_THEORY = SGP/SGP4

EPOCH          = 2025-11-02T12:00:02.000160
MEAN_MOTION    = 15.81216536
ECCENTRICITY   = .0000928
INCLINATION    = 53.1502
RA_OF_ASC_NODE = 279.5488
ARG_OF_PERICENTER = 91.9099
MEAN_ANOMALY   = 99.1390

EPHEMERIS_TYPE = 0
CLASSIFICATION_TYPE = U
NORAD_CAT_ID   = 66128
ELEMENT_SET_NO = 999
REV_AT_EPOCH   = 301
BSTAR          = -.91403E-2
MEAN_MOTION_DOT = -.1602273E-1
MEAN_MOTION_DDOT = 0

CCSDS_OMM_VERS = 2.0
CREATION_DATE  = 
ORIGINATOR     = 

OBJECT_NAME    = STARLINK-35632
OBJECT_ID      = 2025-237R
CENTER_NAME    = EARTH
REF_FRAME      = TEME
TIME_SYSTEM    = UTC
MEAN_ELEMENT_THEORY = SGP/SGP4

EPOCH          = 2025-11-02T12:00:02.000160
MEAN_MOTION    = 15.81176536
ECCENTRICITY   = .0000965
INCLINATION    = 53.1499
RA_OF_ASC_NODE = 279.5435
ARG_OF_PERICENTER = 80.6706
MEAN_ANOMALY   = 112.8322

EPHEMERIS_TYPE = 0
CLASSIFICATION_TYPE = U
NORAD_CAT_ID   = 66129
ELEMENT_SET_NO = 999
REV_AT_EPOCH   = 301
BSTAR          = -.92246E-2
MEAN_MOTION_DOT = -.1612527E-1
MEAN_MOTION_DDOT = 0

CCSDS_OMM_VERS = 2.0
CREATION_DATE  = 
ORIGINATOR     = 

OBJECT_NAME    = STARLINK-35637
OBJECT_ID      = 2025-237S
CENTER_NAME    = EARTH
REF_FRAME      = TEME
TIME_SYSTEM    = UTC
MEAN_ELEMENT_THEORY = SGP/SGP4

EPOCH          = 2025-11-02T12:00:02.000160
MEAN_MOTION    = 15.81157280
ECCENTRICITY   = .000083
INCLINATION    = 53.1501
RA_OF_ASC_NODE = 279.5388
ARG_OF_PERICENTER = 87.7028
MEAN_ANOMALY   = 108.0627

EPHEMERIS_TYPE = 0
CLASSIFICATION_TYPE = U
NORAD_CAT_ID   = 66130
ELEMENT_SET_NO = 999
REV_AT_EPOCH   = 301
BSTAR          = -.92983E-2
MEAN_MOTION_DOT = -.1622339E-1
MEAN_MOTION_DDOT = 0

CCSDS_OMM_VERS = 2.0
CREATION_DATE  = 
ORIGINATOR     = 

OBJECT_NAME    = STARLINK-35630
OBJECT_ID      = 2025-237T
CENTER_NAME    = EARTH
REF_FRAME      = TEME
TIME_SYSTEM    = UTC
MEAN_ELEMENT_THEORY = SGP/SGP4

EPOCH          = 2025-11-02T12:00:02.000160
MEAN_MOTION    = 15.81125213
ECCENTRICITY   = .0000996
INCLINATION    = 53.1500
RA_OF_ASC_NODE = 279.5337
ARG_OF_PERICENTER = 87.1573
MEAN_ANOMALY   = 110.9713

EPHEMERIS_TYPE = 0
CLASSIFICATION_TYPE = U
NORAD_CAT_ID   = 66131
ELEMENT_SET_NO = 999
REV_AT_EPOCH   = 301
BSTAR          = -.93712E-2
MEAN_MOTION_DOT = -.1631373E-1
MEAN_MOTION_DDOT = 0

CCSDS_OMM_VERS = 2.0
CREATION_DATE  = 
ORIGINATOR     = 

OBJECT_NAME    = STARLINK-34412
OBJECT_ID      = 2025-237U
CENTER_NAME    = EARTH
REF_FRAME      = TEME
TIME_SYSTEM    = UTC
MEAN_ELEMENT_THEORY = SGP/SGP4

EPOCH          = 2025-11-02T12:00:02.000160
MEAN_MOTION    = 15.81124888
ECCENTRICITY   = .0000956
INCLINATION    = 53.1500
RA_OF_ASC_NODE = 279.5297
ARG_OF_PERICENTER = 91.6894
MEAN_ANOMALY   = 108.5048

EPHEMERIS_TYPE = 0
CLASSIFICATION_TYPE = U
NORAD_CAT_ID   = 66132
ELEMENT_SET_NO = 999
REV_AT_EPOCH   = 292
BSTAR          = -.94118E-2
MEAN_MOTION_DOT = -.1637457E-1
MEAN_MOTION_DDOT = 0

CCSDS_OMM_VERS = 2.0
CREATION_DATE  = 
ORIGINATOR     = 

OBJECT_NAME    = STARLINK-35520
OBJECT_ID      = 2025-237V
CENTER_NAME    = EARTH
REF_FRAME      = TEME
TIME_SYSTEM    = UTC
MEAN_ELEMENT_THEORY = SGP/SGP4

EPOCH          = 2025-11-02T12:00:02.000160
MEAN_MOTION    = 15.81108160
ECCENTRICITY   = .000092
INCLINATION    = 53.1497
RA_OF_ASC_NODE = 279.5247
ARG_OF_PERICENTER = 79.7391
MEAN_ANOMALY   = 122.6800

EPHEMERIS_TYPE = 0
CLASSIFICATION_TYPE = U
NORAD_CAT_ID   = 66133
ELEMENT_SET_NO = 999
REV_AT_EPOCH   = 301
BSTAR          = -.94703E-2
MEAN_MOTION_DOT = -.1645124E-1
MEAN_MOTION_DDOT = 0

CCSDS_OMM_VERS = 2.0
CREATION_DATE  = 
ORIGINATOR     = 

OBJECT_NAME    = STARLINK-35525
OBJECT_ID      = 2025-237W
CENTER_NAME    = EARTH
REF_FRAME      = TEME
TIME_SYSTEM    = UTC
MEAN_ELEMENT_THEORY = SGP/SGP4

EPOCH          = 2025-11-02T12:00:02.000160
MEAN_MOTION    = 15.81092090
ECCENTRICITY   = .0001049
INCLINATION    = 53.1495
RA_OF_ASC_NODE = 279.5199
ARG_OF_PERICENTER = 96.5357
MEAN_ANOMALY   = 108.1141

EPHEMERIS_TYPE = 0
CLASSIFICATION_TYPE = U
NORAD_CAT_ID   = 66134
ELEMENT_SET_NO = 999
REV_AT_EPOCH   = 301
BSTAR          = -.95565E-2
MEAN_MOTION_DOT = -.1657094E-1
MEAN_MOTION_DDOT = 0

CCSDS_OMM_VERS = 2.0
CREATION_DATE  = 
ORIGINATOR     = 

OBJECT_NAME    = STARLINK-34852
OBJECT_ID      = 2025-237X
CENTER_NAME    = EARTH
REF_FRAME      = TEME
TIME_SYSTEM    = UTC
MEAN_ELEMENT_THEORY = SGP/SGP4

EPOCH          = 2025-11-02T12:00:02.000160
MEAN_MOTION    = 15.81081705
ECCENTRICITY   = .0000927
INCLINATION    = 53.1498
RA_OF_ASC_NODE = 279.5152
ARG_OF_PERICENTER = 85.0971
MEAN_ANOMALY   = 121.7061

EPHEMERIS_TYPE = 0
CLASSIFICATION_TYPE = U
NORAD_CAT_ID   = 66135
ELEMENT_SET_NO = 999
REV_AT_EPOCH   = 297
BSTAR          = -.95881E-2
MEAN_MOTION_DOT = -.1661033E-1
MEAN_MOTION_DDOT = 0

CCSDS_OMM_VERS = 2.0
CREATION_DATE  = 
ORIGINATOR     = 

OBJECT_NAME    = STARLINK-35592
OBJECT_ID      = 2025-237Y
CENTER_NAME    = EARTH
REF_FRAME      = TEME
TIME_SYSTEM    = UTC
MEAN_ELEMENT_THEORY = SGP/SGP4

EPOCH          = 2025-11-02T12:00:02.000160
MEAN_MOTION    = 15.81043241
ECCENTRICITY   = .0001003
INCLINATION    = 53.1495
RA_OF_ASC_NODE = 279.5103
ARG_OF_PERICENTER = 93.9640
MEAN_ANOMALY   = 115.2809

EPHEMERIS_TYPE = 0
CLASSIFICATION_TYPE = U
NORAD_CAT_ID   = 66136
ELEMENT_SET_NO = 999
REV_AT_EPOCH   = 301
BSTAR          = -.96941E-2
MEAN_MOTION_DOT = -.1674344E-1
MEAN_MOTION_DDOT = 0

CCSDS_OMM_VERS = 2.0
CREATION_DATE  = 
ORIGINATOR     = 

OBJECT_NAME    = STARLINK-35576
OBJECT_ID      = 2025-237Z
CENTER_NAME    = EARTH
REF_FRAME      = TEME
TIME_SYSTEM    = UTC
MEAN_ELEMENT_THEORY = SGP/SGP4

EPOCH          = 2025-11-02T12:00:02.000160
MEAN_MOTION    = 15.81025507
ECCENTRICITY   = .0001114
INCLINATION    = 53.1493
RA_OF_ASC_NODE = 279.5056
ARG_OF_PERICENTER = 102.0965
MEAN_ANOMALY   = 109.4187

EPHEMERIS_TYPE = 0
CLASSIFICATION_TYPE = U
NORAD_CAT_ID   = 66137
ELEMENT_SET_NO = 999
REV_AT_EPOCH   = 301
BSTAR          = -.98166E-2
MEAN_MOTION_DOT = -.1691456E-1
MEAN_MOTION_DDOT = 0

CCSDS_OMM_VERS = 2.0
CREATION_DATE  = 
ORIGINATOR     = 

OBJECT_NAME    = STARLINK-35623
OBJECT_ID      = 2025-237AA
CENTER_NAME    = EARTH
REF_FRAME      = TEME
TIME_SYSTEM    = UTC
MEAN_ELEMENT_THEORY = SGP/SGP4

EPOCH          = 2025-11-02T12:00:02.000160
MEAN_MOTION    = 15.80995980
ECCENTRICITY   = .0001032
INCLINATION    = 53.1495
RA_OF_ASC_NODE = 279.5005
ARG_OF_PERICENTER = 99.6161
MEAN_ANOMALY   = 114.3455

EPHEMERIS_TYPE = 0
CLASSIFICATION_TYPE = U
NORAD_CAT_ID   = 66138
ELEMENT_SET_NO = 999
REV_AT_EPOCH   = 301
BSTAR          = -.10084E-1
MEAN_MOTION_DOT = -.1765919E-1
MEAN_MOTION_DDOT = 0

CCSDS_OMM_VERS = 2.0
CREATION_DATE  = 
ORIGINATOR     = 

OBJECT_NAME    = STARLINK-35549
OBJECT_ID      = 2025-237AB
CENTER_NAME    = EARTH
REF_FRAME      = TEME
TIME_SYSTEM    = UTC
MEAN_ELEMENT_THEORY = SGP/SGP4

EPOCH          = 2025-11-02T12:00:02.000160
MEAN_MOTION    = 15.80979767
ECCENTRICITY   = .0001043
INCLINATION    = 53.1492
RA_OF_ASC_NODE = 279.4910
ARG_OF_PERICENTER = 102.6522
MEAN_ANOMALY   = 115.7008

EPHEMERIS_TYPE = 0
CLASSIFICATION_TYPE = U
NORAD_CAT_ID   = 66139
ELEMENT_SET_NO = 999
REV_AT_EPOCH   = 301
BSTAR          = -.10479E-1
MEAN_MOTION_DOT = -.1825368E-1
MEAN_MOTION_DDOT = 0

CCSDS_OMM_VERS = 2.0
CREATION_DATE  = 
ORIGINATOR     = 

OBJECT_NAME    = STARLINK-35625
OBJECT_ID      = 2025-237AC
CENTER_NAME    = EARTH
REF_FRAME      = TEME
TIME_SYSTEM    = UTC
MEAN_ELEMENT_THEORY = SGP/SGP4

EPOCH          = 2025-11-02T12:00:02.000160
MEAN_MOTION    = 15.80996770
ECCENTRICITY   = .000106
INCLINATION    = 53.1495
RA_OF_ASC_NODE = 279.4960
ARG_OF_PERICENTER = 103.4945
MEAN_ANOMALY   = 112.5780

EPHEMERIS_TYPE = 0
CLASSIFICATION_TYPE = U
NORAD_CAT_ID   = 66140
ELEMENT_SET_NO = 999
REV_AT_EPOCH   = 301
BSTAR          = -.10237E-1
MEAN_MOTION_DOT = -.1789538E-1
MEAN_MOTION_DDOT = 0

